OBJECT_NAME,OBJECT_ID,EPOCH,MEAN_MOTION,ECCENTRICITY,INCLINATION,RA_OF_ASC_NODE,ARG_OF_PERICENTER,MEAN_ANOMALY,EPHEMERIS_TYPE,CLASSIFICATION_TYPE,NORAD_CAT_ID,ELEMENT_SET_NO,REV_AT_EPOCH,BSTAR,MEAN_MOTION_DOT,MEAN_MOTION_DDOT
QIANFAN-147,2026-108C,2026-06-09T13:17:26.537568,14.11706592,.00147186,89.0114,23.0669,118.7738,241.4928,0,U,69106,999,326,-.11952957E+1,-.2017754E-1,0
QIANFAN-148,2026-108D,2026-06-09T13:07:36.160320,14.12197069,.00168802,89.0114,23.0658,127.2839,232.9888,0,U,69107,999,326,-.11791275E+1,-.2009674E-1,0
QIANFAN-149,2026-108E,2026-06-09T13:02:48.995232,14.12404547,.00152268,89.0116,23.0657,129.8129,230.4400,0,U,69108,999,326,-.11864767E+1,-.2028E-1,0
QIANFAN-150,2026-108F,2026-06-09T12:48:58.597920,14.13259638,.00161177,89.0114,23.0643,137.3412,222.9029,0,U,69109,999,326,-.11508462E+1,-.2000551E-1,0
QIANFAN-151,2026-108G,2026-06-09T12:40:45.426720,14.13765677,.00172899,89.0114,23.0632,146.2506,213.9785,0,U,69110,999,326,-.11944453E+1,-.2089157E-1,0
QIANFAN-152,2026-108H,2026-06-09T12:31:15.423456,14.13865528,.00159154,89.0111,23.0623,140.1286,220.1073,0,U,69111,999,326,-.11278182E+1,-.1983699E-1,0
QIANFAN-153,2026-108J,2026-06-09T12:23:10.106880,14.14098783,.00174775,89.0109,23.0608,143.3323,216.9063,0,U,69112,999,326,-.11160142E+1,-.1972703E-1,0
QIANFAN-154,2026-108K,2026-06-09T12:13:39.095328,14.15172459,.00210348,89.0110,23.0612,149.2955,210.9468,0,U,69113,999,326,-.11831539E+1,-.2122576E-1,0
QIANFAN-155,2026-108L,2026-06-09T12:19:02.509536,14.14664207,.00197743,89.0106,23.0617,148.3485,211.8896,0,U,69114,999,326,-.11782504E+1,-.2095651E-1,0
QIANFAN-156,2026-108M,2026-06-09T12:03:24.870816,14.15415996,.0018341,89.0116,23.0602,152.9079,207.3070,0,U,69115,999,326,-.10892003E+1,-.1972999E-1,0
QIANFAN-157,2026-108N,2026-06-09T13:05:22.568640,14.16823493,.00211583,89.0109,23.0472,157.0719,203.1418,0,U,69116,999,327,-.10985013E+1,-.2038503E-1,0
QIANFAN-158,2026-108P,2026-06-09T13:33:51.755904,14.16909483,.00216337,89.0116,23.0507,153.2309,207.0001,0,U,69117,999,327,-.11059281E+1,-.2054518E-1,0
QIANFAN-159,2026-108Q,2026-06-09T13:26:09.320640,14.17335561,.00172934,89.0109,23.0491,161.1215,199.0619,0,U,69118,999,327,-.10580978E+1,-.198492E-1,0
QIANFAN-160,2026-108R,2026-06-09T13:21:32.698944,14.16664674,.00199838,89.0119,23.0494,160.1989,199.9979,0,U,69119,999,327,-.11138681E+1,-.2058846E-1,0
QIANFAN-161,2026-108S,2026-06-09T13:14:46.631040,14.18073223,.00201417,89.0112,23.0486,152.5315,207.6943,0,U,69120,999,327,-.10769701E+1,-.2044689E-1,0
QIANFAN-162,2026-108T,2026-06-09T13:10:55.193088,14.18734769,.00206438,89.0113,23.0480,147.7858,212.4598,0,U,69121,999,327,-.10848414E+1,-.2082426E-1,0
SMILE,2026-109A,2026-05-24T15:40:35.120928,14.57062785,.00091232,70.0007,229.2745,259.5159,100.4951,0,U,69123,999,80,-.42378883E-3,-.1976E-4,0
STARLINK-37726,2026-110A,2026-06-09T22:00:01.999584,15.49115418,.00015559,97.2852,357.0675,100.9924,161.1850,0,U,69124,999,448,.22309762E-2,.122841E-2,0
STARLINK-37722,2026-110B,2026-06-09T22:00:01.999584,15.49115272,.00015313,97.2847,357.2282,73.9998,207.1354,0,U,69125,999,453,.22073044E-2,.121515E-2,0
STARLINK-37715,2026-110C,2026-06-09T22:00:01.999584,15.56049109,.00018917,97.2850,357.3162,76.8927,42.5657,0,U,69126,999,448,-.39665141E-1,-.2412774E-1,0
STARLINK-37706,2026-110D,2026-06-09T22:00:01.999584,15.56399367,.00018035,97.2848,357.3209,80.7447,48.4951,0,U,69127,999,448,-.38870305E-1,-.2397617E-1,0
STARLINK-37723,2026-110E,2026-06-09T22:00:01.999584,15.56742169,.00018942,97.2850,357.3258,78.4216,61.4675,0,U,69128,999,448,-.38640582E-1,-.2412156E-1,0
STARLINK-37720,2026-110F,2026-06-09T22:00:01.999584,15.49115598,.0001597,97.2855,357.0876,94.2097,216.9204,0,U,69129,999,448,.21975734E-2,.120973E-2,0
STARLINK-37533,2026-110G,2026-06-09T22:00:01.999584,15.57797617,.00019575,97.2847,357.3382,81.6830,86.9645,0,U,69130,999,448,-.36919523E-1,-.2399838E-1,0
STARLINK-37530,2026-110H,2026-06-09T22:00:01.999584,15.58150360,.00020507,97.2845,357.3432,78.6612,99.8462,0,U,69131,999,448,-.36709362E-1,-.2415955E-1,0
STARLINK-37660,2026-110J,2026-06-09T22:00:01.999584,15.52306636,.0001326,97.2843,357.2656,102.0380,259.1277,0,U,69132,999,448,-.32587499E-1,-.176294E-1,0
STARLINK-37633,2026-110K,2026-06-09T22:00:01.999584,15.53351492,.00013756,97.2846,357.2731,80.8068,310.1832,0,U,69133,999,448,-.48529738E-1,-.2692362E-1,0
STARLINK-37361,2026-110L,2026-06-09T22:00:01.999584,15.59223338,.00020907,97.2843,357.3543,90.1876,116.0630,0,U,69134,999,448,-.35383421E-1,-.2424432E-1,0
STARLINK-37372,2026-110M,2026-06-09T22:00:01.999584,15.49420602,.00012716,97.2847,357.2856,121.5851,293.9528,0,U,69135,999,448,-.7413936E-2,-.387267E-2,0
